<?xml version="1.0" encoding="UTF-8"?>
<kml xmlns="http://earth.google.com/kml/2.1">
<Document>
	<name>All sites</name>
	<Style id="sh_ylw-pushpin">
		<IconStyle>
			<scale>1.3</scale>
			<Icon>
				<href>http://maps.google.com/mapfiles/kml/pushpin/ylw-pushpin.png</href>
			</Icon>
			<hotSpot x="20" y="2" xunits="pixels" yunits="pixels"/>
		</IconStyle>
	</Style>
	<StyleMap id="msn_ylw-pushpin">
		<Pair>
			<key>normal</key>
			<styleUrl>#sn_ylw-pushpin</styleUrl>
		</Pair>
		<Pair>
			<key>highlight</key>
			<styleUrl>#sh_ylw-pushpin</styleUrl>
		</Pair>
	</StyleMap>
	<Style id="sn_ylw-pushpin">
		<IconStyle>
			<scale>1.1</scale>
			<Icon>
				<href>http://maps.google.com/mapfiles/kml/pushpin/ylw-pushpin.png</href>
			</Icon>
			<hotSpot x="20" y="2" xunits="pixels" yunits="pixels"/>
		</IconStyle>
	</Style>
	<Folder>
		<name>INFN-ROMA1</name>
		<open>1</open>
		<Placemark>
			<name>INFN-ROMA1 T2</name>
			<description>Roma</description>
			<LookAt>
				<longitude>12.5120858</longitude>
				<latitude>41.9007660</latitude>
				<altitude>0</altitude>
				<range>247.9547659668371</range>
				<tilt>60.56016520610353</tilt>
				<heading>-168.1449012502181</heading>
			</LookAt>
			<styleUrl>#msn_ylw-pushpin</styleUrl>
			<Point>
				<coordinates>12.5120858,41.9007660,0</coordinates>
			</Point>
		</Placemark>
	</Folder>
	<Folder>
		<name>INFN-ROMA3</name>
		<open>1</open>
		<Placemark>
			<name>INFN-ROMA3 T3</name>
			<description>Roma</description>
			<LookAt>
				<longitude>12.4668</longitude>
				<latitude>41.855894</latitude>
				<altitude>0</altitude>
				<range>247.9547659668371</range>
				<tilt>60.56016520610353</tilt>
				<heading>-168.1449012502181</heading>
			</LookAt>
			<styleUrl>#msn_ylw-pushpin</styleUrl>
			<Point>
				<coordinates>12.4668,41.855894,0</coordinates>
			</Point>
		</Placemark>
	</Folder>
</Document>
</kml>
